LEMUR-2-GREENBERG       
1 42837U 17042N   26068.46200528  .00019778  00000+0  72539-3 0  9997
2 42837  97.3781 249.8007 0009157   4.0119 356.1192 15.27971352473146
STARLINK-33547          
1 62283U 24237S   26068.39942571  .00035780  00000+0  13031-2 0  9993
2 62283  42.9953 207.0838 0000982 170.0613 190.0259 15.27589555 71275
